GLOBALSTAR M063         
1 26081U 00008A   24297.54576174 -.00000060  00000+0  32882-3 0  9990
2 26081  51.9988  14.7954 0004720 214.0922 250.4587 11.86162465129498
GLOBALSTAR M062         
1 26082U 00008B   24298.14427066 -.00000012  00000+0  61828-3 0  9992
2 26082  51.9853  69.9015 0006362 334.1628 197.2158 12.43451991129751
GLOBALSTAR M060         
1 26083U 00008C   24297.47753288 -.00000149  00000+0 -57503-3 0  9993
2 26083  52.0050 358.3849 0003115  10.7499   2.6347 12.17644871123530
GLOBALSTAR M064         
1 26084U 00008D   24297.90715754 -.00000058  00000+0  36549-3 0  9993
2 26084  52.0003 115.4568 0001172   6.2137 353.8710 11.88525203139119
GLOBALSTAR M065         
1 31571U 07020A   24297.97268635 -.00000164  00000+0 -33859-3 0  9999
2 31571  51.9891 225.2160 0010053 138.3354 300.4596 12.61980167803588
GLOBALSTAR M069         
1 31573U 07020C   24297.86453112 -.00000065  00000+0  22585-3 0  9998
2 31573  51.9937 182.3795 0001553  39.8190  39.1922 12.53302750804684
GLOBALSTAR M072         
1 31574U 07020D   24297.71607934 -.00000059  00000+0  25023-3 0  9999
2 31574  52.0080 277.7216 0000379   7.5546 162.7089 12.62267251802956
GLOBALSTAR M071         
1 31576U 07020F   24297.88475559 -.00000046  00000+0  32171-3 0  9993
2 31576  52.0055 186.4188 0001420  31.8011  47.6903 12.62261211465893
